     2.10           N: GPS NAV DATA                         RINEX VERSION / TYPE
teqc  2009Mar23                         20140528 00:38:21UTCPGM / RUN BY / DATE
    16                                                      LEAP SECONDS
Linux 2.4.20-8|Pentium IV|gcc -static|Linux|486/DX+         COMMENT
teqc  2009Mar23                         20140527 01:05:02UTCCOMMENT
                                                            END OF HEADER
29 14  5 27 10  0  0.0 5.354583263397D-04 2.728484105319D-12 0.000000000000D+00
    4.600000000000D+01 4.406250000000D+00 4.135529404256D-09-1.381537971196D+00
    2.868473529816D-07 1.565404236317D-03 1.009739935398D-05 5.153701227188D+03
    2.088000000000D+05-3.725290298462D-09-2.695693477768D+00 3.166496753693D-08
    9.696289362286D-01 1.906875000000D+02-8.559929722975D-01-7.722107371054D-09
    6.900287424668D-10 1.000000000000D+00 1.794000000000D+03 0.000000000000D+00
    2.000000000000D+00 0.000000000000D+00-9.778887033463D-09 4.600000000000D+01
    2.042700000000D+05 4.000000000000D+00
 5 14  5 27 10  0  0.0-3.700512461364D-04 2.614797267597D-12 0.000000000000D+00
    4.400000000000D+01-2.937500000000D+00 4.863059708814D-09 3.010415127165D+00
   -1.098960638046D-07 3.572908113711D-03 1.119077205658D-05 5.153602670670D+03
    2.088000000000D+05-5.029141902924D-08-6.568049519797D-01-7.450580596924D-08
    9.473362385969D-01 1.571562500000D+02 3.100147499759D-01-7.929973172356D-09
   -5.214502919263D-10 1.000000000000D+00 1.794000000000D+03 0.000000000000D+00
    2.000000000000D+00 0.000000000000D+00-1.024454832077D-08 4.400000000000D+01
    2.035200000000D+05 4.000000000000D+00
 7 14  5 27 10  0  0.0 3.508902154863D-04 4.206412995700D-12 0.000000000000D+00
    5.400000000000D+01-2.087500000000D+01 4.565190158494D-09-5.924563746432D-01
   -1.253560185432D-06 7.362705538981D-03 9.834766387939D-07 5.153626430511D+03
    2.088000000000D+05 1.210719347000D-07 1.465179455108D+00 9.313225746155D-09
    9.731714698922D-01 3.669687500000D+02-2.838886241498D+00-8.456780830295D-09
   -2.382242087088D-10 1.000000000000D+00 1.794000000000D+03 0.000000000000D+00
    2.000000000000D+00 0.000000000000D+00-1.071020960808D-08 5.400000000000D+01
    2.019900000000D+05 4.000000000000D+00
30 14  5 27 10  0  0.0-1.687742769718D-05-5.684341886081D-12 0.000000000000D+00
    2.100000000000D+01-3.203125000000D+01 4.810914679621D-09-3.269283856052D-01
   -1.758337020874D-06 7.111418526620D-04 9.536743164062D-07 5.153695789337D+03
    2.088000000000D+05-2.793967723846D-08 1.519684969550D+00-3.539025783539D-08
    9.587308914242D-01 3.619062500000D+02 2.712296079459D+00-8.534641216350D-09
   -2.542963067476D-10 1.000000000000D+00 1.794000000000D+03 0.000000000000D+00
    2.000000000000D+00 6.300000000000D+01 3.259629011154D-09 2.100000000000D+01
    2.050800000000D+05 4.000000000000D+00
14 14  5 27 10  0  0.0 1.691416837275D-04-3.410605131648D-12 0.000000000000D+00
    8.000000000000D+01 1.243125000000D+02 4.231961992489D-09 2.091673911894D+00
    6.293877959251D-06 7.527624955401D-03 7.862225174904D-06 5.153668291092D+03
    2.088000000000D+05-5.029141902924D-08 4.686793996811D-01-1.862645149231D-07
    9.704982855377D-01 2.311562500000D+02-2.002785303635D+00-7.869256357542D-09
    1.850077063136D-10 1.000000000000D+00 1.794000000000D+03 0.000000000000D+00
    2.800000000000D+00 0.000000000000D+00-9.313225746155D-09 8.000000000000D+01
    2.060100000000D+05 4.000000000000D+00
 3 14  5 27 12  0  0.0 3.702994436026D-04 4.888534022029D-12 0.000000000000D+00
    7.100000000000D+01-1.587500000000D+01 4.649479383765D-09 1.820660752480D+00
   -1.035630702972D-06 1.702523755375D-02 1.072511076927D-05 5.153800977707D+03
    2.160000000000D+05 7.078051567078D-08-2.899492289641D+00-4.675239324570D-07
    9.386923355036D-01 1.615000000000D+02 1.384135348599D+00-7.962474526168D-09
    5.325221816864D-10 1.000000000000D+00 1.794000000000D+03 0.000000000000D+00
    2.000000000000D+00 0.000000000000D+00-4.656612873077D-09 7.100000000000D+01
    2.123700000000D+05 4.000000000000D+00
11 14  5 27 12  0  0.0-4.923441447318D-04-3.069544618484D-12 0.000000000000D+00
    3.700000000000D+01 2.718750000000D+01 6.625990284806D-09 6.233740525229D-01
    1.363456249237D-06 1.495555345900D-02 4.841014742851D-06 5.153694822311D+03
    2.160000000000D+05-1.862645149231D-07-2.019460095945D+00 1.676380634308D-08
    8.902461736179D-01 2.500625000000D+02 1.286723410955D+00-9.379676415458D-09
    2.710827202548D-10 1.000000000000D+00 1.794000000000D+03 0.000000000000D+00
    2.000000000000D+00 0.000000000000D+00-1.210719347000D-08 3.700000000000D+01
    2.116800000000D+05 4.000000000000D+00
14 14  5 27 12  0  0.0 1.691165380180D-04-3.410605131648D-12 0.000000000000D+00
    8.100000000000D+01 1.339062500000D+02 4.252319983339D-09-3.141367114047D+00
    6.940215826035D-06 7.526449742727D-03 7.877126336098D-06 5.153670455933D+03
    2.160000000000D+05 1.024454832077D-07 4.686225974979D-01-1.974403858185D-07
    9.704996709211D-01 2.290937500000D+02-2.002747520850D+00-7.886399928784D-09
    2.357241045694D-10 1.000000000000D+00 1.794000000000D+03 0.000000000000D+00
    2.800000000000D+00 0.000000000000D+00-9.313225746155D-09 8.100000000000D+01
    2.114700000000D+05 4.000000000000D+00
15 14  5 27 12  0  0.0-1.818579621613D-04-2.160049916711D-12 0.000000000000D+00
    8.500000000000D+01 1.423125000000D+02 5.055924885280D-09 2.526550993310D+00
    7.336959242821D-06 6.257473607548D-03 8.702278137207D-06 5.153701955795D+03
    2.160000000000D+05-1.415610313416D-07 3.566569612455D-01-2.980232238770D-08
    9.371325239712D-01 1.990937500000D+02 2.746395124324D-01-8.226056934004D-09
    2.485817830005D-10 1.000000000000D+00 1.794000000000D+03 0.000000000000D+00
    2.000000000000D+00 0.000000000000D+00-1.024454832077D-08 8.500000000000D+01
    2.114700000000D+05 4.000000000000D+00
18 14  5 27 12  0  0.0 3.218180499971D-04 2.387423592154D-12 0.000000000000D+00
    9.300000000000D+01-2.906250000000D+00 5.292720463052D-09-1.474410585222D+00
    4.842877388000D-08 1.531079330016D-02 1.021660864353D-05 5.153696016312D+03
    2.160000000000D+05 2.980232238770D-07-6.621251710282D-01 1.583248376846D-07
    9.258904081491D-01 1.587500000000D+02-2.037580159152D+00-8.173911904812D-09
   -4.500187450871D-10 1.000000000000D+00 1.794000000000D+03 0.000000000000D+00
    2.000000000000D+00 0.000000000000D+00-1.117587089539D-08 9.300000000000D+01
    2.114700000000D+05 4.000000000000D+00
19 14  5 27 12  0  0.0-4.592612385750D-04-2.160049916711D-12 0.000000000000D+00
    6.900000000000D+01 1.396875000000D+01 4.199817796412D-09 2.433035887608D+00
    7.245689630508D-07 1.037189201452D-02 9.769573807716D-06 5.153620302200D+03
    2.160000000000D+05-2.011656761169D-07-2.654016684025D+00-1.192092895508D-07
    9.659868729335D-01 1.944062500000D+02 4.334674720715D-01-7.758894617676D-09
    6.332406627297D-10 1.000000000000D+00 1.794000000000D+03 0.000000000000D+00
    2.000000000000D+00 0.000000000000D+00-1.490116119385D-08 6.900000000000D+01
    2.114700000000D+05 4.000000000000D+00
21 14  5 27 12  0  0.0-3.635166212916D-04-2.160049916711D-12 0.000000000000D+00
    3.400000000000D+01 3.031250000000D+00 5.764525829925D-09-5.132727766257D-01
    4.842877388000D-07 2.151678991504D-02 4.827976226807D-06 5.153739393234D+03
    2.160000000000D+05-8.568167686462D-08-1.707628793776D+00 3.296881914139D-07
    9.318974540695D-01 2.763437500000D+02-2.022415758077D+00-8.981445541829D-09
    1.771502361613D-10 1.000000000000D+00 1.794000000000D+03 0.000000000000D+00
    2.000000000000D+00 0.000000000000D+00-1.117587089539D-08 3.400000000000D+01
    2.114700000000D+05 4.000000000000D+00
22 14  5 27 12  0  0.0 2.374439500272D-04 3.069544618484D-12 0.000000000000D+00
    4.600000000000D+01-1.525000000000D+01 5.291291832115D-09-2.032318086709D+00
   -8.419156074524D-07 7.248370326124D-03 1.016631722450D-05 5.153728193283D+03
    2.160000000000D+05 8.568167686462D-08-6.602406165518D-01-1.676380634308D-08
    9.236677030845D-01 1.590312500000D+02-2.059041433626D+00-8.193198422458D-09
   -4.200174954146D-10 1.000000000000D+00 1.794000000000D+03 0.000000000000D+00
    2.000000000000D+00 0.000000000000D+00-1.722946763039D-08 4.600000000000D+01
    2.114700000000D+05 4.000000000000D+00
24 14  5 27 12  0  0.0-2.908892929554D-05-6.821210263297D-13 0.000000000000D+00
    8.600000000000D+01-2.687500000000D+00 5.093069289636D-09 1.262717710861D+00
    9.313225746155D-09 2.077176584862D-03 1.974403858185D-07 5.153728763580D+03
    2.160000000000D+05 2.607703208923D-08 1.430433010477D+00 5.774199962616D-08
    9.565420017110D-01 3.718750000000D+02 3.487646410929D-01-8.709291348372D-09
   -1.375057276655D-10 1.000000000000D+00 1.794000000000D+03 0.000000000000D+00
    2.800000000000D+00 0.000000000000D+00 2.793967723846D-09 8.600000000000D+01
    2.114700000000D+05 4.000000000000D+00
27 14  5 27 12  0  0.0-1.414958387613D-05 2.273736754432D-12 0.000000000000D+00
    8.400000000000D+01 6.843750000000D+00 4.176959701423D-09-3.022170244470D+00
    4.451721906662D-07 1.275268150494D-03 1.035816967487D-05 5.153676689148D+03
    2.160000000000D+05 4.842877388000D-08-2.750328624307D+00-2.421438694000D-08
    9.636789689829D-01 1.827500000000D+02 1.585474568008D-01-7.778181135322D-09
    6.250260348431D-10 1.000000000000D+00 1.794000000000D+03 0.000000000000D+00
    2.000000000000D+00 0.000000000000D+00 1.862645149231D-09 8.400000000000D+01
    2.114700000000D+05 4.000000000000D+00
